{
    "links": {
        "self": "http://www.neowsapp.com/rest/v1/neo/3648984?api_key=iIulBulltgU6a56xZRHN4H3l9WmuAYTsLGpBGhQ2"
    },
    "id": "3648984",
    "neo_reference_id": "3648984",
    "name": "(2013 TY68)",
    "designation": "2013 TY68",
    "nasa_jpl_url": "http://ssd.jpl.nasa.gov/sbdb.cgi?sstr=3648984",
    "absolute_magnitude_h": 28.0,
    "estimated_diameter": {
        "kilometers": {
            "estimated_diameter_min": 0.0066765941,
            "estimated_diameter_max": 0.0149293183
        },
        "meters": {
            "estimated_diameter_min": 6.676594135,
            "estimated_diameter_max": 14.9293183439
        },
        "miles": {
            "estimated_diameter_min": 0.004148642,
            "estimated_diameter_max": 0.0092766455
        },
        "feet": {
            "estimated_diameter_min": 21.9048371017,
            "estimated_diameter_max": 48.9807047955
        }
    },
    "is_potentially_hazardous_asteroid": false,
    "close_approach_data": [
        {
            "close_approach_date": "2013-10-02",
            "close_approach_date_full": "2013-Oct-02 13:09",
            "epoch_date_close_approach": 1380719340000,
            "relative_velocity": {
                "kilometers_per_second": "10.8391102057",
                "kilometers_per_hour": "39020.7967404599",
                "miles_per_hour": "24246.005619093"
            },
            "miss_distance": {
                "astronomical": "0.0154239284",
                "lunar": "5.9999081476",
                "kilometers": "2307386.835672508",
                "miles": "1433743.6961082904"
            },
            "orbiting_body": "Earth"
        },
        {
            "close_approach_date": "2181-05-20",
            "close_approach_date_full": "2181-May-20 05:34",
            "epoch_date_close_approach": 6670618440000,
            "relative_velocity": {
                "kilometers_per_second": "17.9339826957",
                "kilometers_per_hour": "64562.3377046104",
                "miles_per_hour": "40116.5258920675"
            },
            "miss_distance": {
                "astronomical": "0.2695222634",
                "lunar": "104.8441604626",
                "kilometers": "40319956.522218958",
                "miles": "25053659.2292913004"
            },
            "orbiting_body": "Earth"
        }
    ],
    "orbital_data": {
        "orbit_id": "4",
        "orbit_determination_date": "2017-04-06 08:44:15",
        "first_observation_date": "2013-10-06",
        "last_observation_date": "2013-10-07",
        "data_arc_in_days": 1,
        "observations_used": 13,
        "orbit_uncertainty": "9",
        "minimum_orbit_intersection": ".0119837",
        "jupiter_tisserand_invariant": "4.429",
        "epoch_osculation": "2456572.5",
        "eccentricity": ".4174372410513818",
        "semi_major_axis": "1.505911724676125",
        "inclination": "4.976580687101746",
        "ascending_node_longitude": "195.9029922716554",
        "orbital_period": "674.990559535144",
        "perihelion_distance": ".8772880890603951",
        "perihelion_argument": "117.1566701637819",
        "aphelion_distance": "2.134535360291854",
        "perihelion_time": "2456525.134255509408",
        "mean_anomaly": "25.26208370729859",
        "mean_motion": ".5333407925703829",
        "equinox": "J2000",
        "orbit_class": {
            "orbit_class_type": "APO",
            "orbit_class_description": "Near-Earth asteroid orbits which cross the Earth’s orbit similar to that of 1862 Apollo",
            "orbit_class_range": "a (semi-major axis) > 1.0 AU; q (perihelion) < 1.017 AU"
        }
    },
    "is_sentry_object": false
}